0 FENGYUN 1C DEB
1 30600U 99025AMF 13281.37019183  .00002330  00000-0  13658-2 0  3336
2 30600 098.3807 316.1516 0482938 086.8630 033.2912 13.63061803332283
0 FENGYUN 1C DEB
1 30600U 99025AMF 13282.82548066  .00002737  00000-0  16012-2 0  3343
2 30600 098.3811 317.4102 0482743 083.0011 334.4524 13.63077470332483
0 FENGYUN 1C DEB
1 30600U 99025AMF 13284.06863058  .00003862  00000-0  22517-2 0  3350
2 30600 098.3812 318.4856 0482665 079.7014 314.6958 13.63080842332656
0 FENGYUN 1C DEB
1 30600U 99025AMF 13285.33528304  .00002800  00000-0  16387-2 0  3363
2 30600 098.3814 319.5813 0482512 076.3399 050.2892 13.63087947332825
0 FENGYUN 1C DEB
1 30600U 99025AMF 13286.78926323  .00003063  00000-0  17922-2 0  3375
2 30600 098.3813 320.8393 0482322 072.4802 345.1587 13.63093474333029
0 FENGYUN 1C DEB
1 30600U 99025AMF 13287.81757087  .00003815  00000-0  22281-2 0  3389
2 30600 098.3807 321.7290 0482146 069.7486 351.2182 13.63101385333164
0 FENGYUN 1C DEB
1 30600U 99025AMF 13289.05968309  .00004515  00000-0  26331-2 0  3397
2 30600 098.3806 322.8035 0482049 066.4492 326.4950 13.63110323333333
0 FENGYUN 1C DEB
1 30600U 99025AMF 13290.32641331  .00004246  00000-0  24790-2 0  3402
2 30600 098.3801 323.8993 0481884 063.0823 062.6141 13.63117710333506
0 FENGYUN 1C DEB
1 30600U 99025AMF 13291.35375248  .00003671  00000-0  21465-2 0  3415
2 30600 098.3797 324.7879 0481760 060.3533 064.0150 13.63124012333648
0 FENGYUN 1C DEB
1 30600U 99025AMF 13292.80876198  .00003429  00000-0  20073-2 0  3422
2 30600 098.3795 326.0464 0481597 056.4834 004.1370 13.63132307333846
0 FENGYUN 1C DEB
1 30600U 99025AMF 13294.05064646  .00003559  00000-0  20837-2 0  3431
2 30600 098.3794 327.1205 0481449 053.1806 338.4293 13.63138188334019
0 FENGYUN 1C DEB
1 30600U 99025AMF 13295.07768064  .00003808  00000-0  22291-2 0  3443
2 30600 098.3798 328.0087 0481258 050.4426 338.4175 13.63142710334157
